{"type": "FeatureCollection", "features": [ {"type": "Feature", "properties": {"norad_id": 38163, "name": "FENGYUN 1C DEB", "group": "fengyun-1c-debris", "lat": 54.63075907621211, "lon": -150.81626000527882, "alt_km": 908.7798791965861, "timestamp": "2025-12-05T14:45:15.588806+00:00", "meta": {"OBJECT_NAME": "FENGYUN 1C DEB", "OBJECT_ID": "1999-025ERL", "EPOCH": "2025-12-03T21:09:55.257120", "MEAN_MOTION": 14.05882065, "ECCENTRICITY": 0.0075612, "INCLINATION": 99.1295, "RA_OF_ASC_NODE": 14.3451, "ARG_OF_PERICENTER": 267.038, "MEAN_ANOMALY": 92.2133, "EPHEMERIS_TYPE": 0, "CLASSIFICATION_TYPE": "U", "NORAD_CAT_ID": 38163, "ELEMENT_SET_NO": 999, "REV_AT_EPOCH": 24417, "BSTAR": 0.0013677, "MEAN_MOTION_DOT": 2.25e-05, "MEAN_MOTION_DDOT": 0}, "tle": {"line1": "1 38163U 99025ERL 25337.88188955  .00002250  00000+0  13677-2 0  9992", "line2": "2 38163  99.1295  14.3451 0075612 267.0380  92.2133 14.05882065244170"}}, "geometry": {"type": "Point", "coordinates": [-150.81626000527882, 54.63075907621211]}}, {"type": "Feature", "properties": {"norad_id": 38166, "name": "FENGYUN 1C DEB", "group": "fengyun-1c-debris", "lat": 79.7746908414243, "lon": 19.954941966583625, "alt_km": 745.3744139039982, "timestamp": "2025-12-05T14:45:15.588817+00:00", "meta": {"OBJECT_NAME": "FENGYUN 1C DEB", "OBJECT_ID": "1999-025ERP", "EPOCH": "2025-12-02T05:47:50.624160", "MEAN_MOTION": 14.30703931, "ECCENTRICITY": 0.0053537, "INCLINATION": 99.0784, "RA_OF_ASC_NODE": 78.8573, "ARG_OF_PERICENTER": 76.5372, "MEAN_ANOMALY": 284.1768, "EPHEMERIS_TYPE": 0, "CLASSIFICATION_TYPE": "U", "NORAD_CAT_ID": 38166, "ELEMENT_SET_NO": 999, "REV_AT_EPOCH": 63622, "BSTAR": 0.0032633, "MEAN_MOTION_DOT": 8.633e-05, "MEAN_MOTION_DDOT": 0}, "tle": {"line1": "1 38166U 99025ERP 25336.24155815  .00008633  00000+0  32633-2 0  9997", "line2": "2 38166  99.0784  78.8573 0053537  76.5372 284.1768 14.30703931636220"}}, "geometry": {"type": "Point", "coordinates": [19.954941966583625, 79.7746908414243]}}, {"type": "Feature", "properties": {"norad_id": 38169, "name": "FENGYUN 1C DEB", "group": "fengyun-1c-debris", "lat": -81.00007021870485, "lon": 46.52213912350019, "alt_km": 687.308350296601, "timestamp": "2025-12-05T14:45:15.588827+00:00", "meta": {"OBJECT_NAME": "FENGYUN 1C DEB", "OBJECT_ID": "1999-025ERS", "EPOCH": "2025-11-22T03:51:43.920000", "MEAN_MOTION": 14.70462609, "ECCENTRICITY": 0.00311315, "INCLINATION": 98.9783, "RA_OF_ASC_NODE": 298.2991, "ARG_OF_PERICENTER": 127.7379, "MEAN_ANOMALY": 232.6652, "EPHEMERIS_TYPE": 0, "CLASSIFICATION_TYPE": "U", "NORAD_CAT_ID": 38169, "ELEMENT_SET_NO": 999, "REV_AT_EPOCH": 60966, "BSTAR": 0.0026738914, "MEAN_MOTION_DOT": 0.00016302, "MEAN_MOTION_DDOT": 0}, "tle": {"line1": "1 38169U 99025ERS 25326.16092500  .00016302  00000+0  26739-2 0  9993", "line2": "2 38169  98.9783 298.2991 0031131 127.7379 232.6652 14.70462609609660"}}, "geometry": {"type": "Point", "coordinates": [46.52213912350019, -81.00007021870485]}}, {"type": "Feature", "properties": {"norad_id": 38173, "name": "FENGYUN 1C DEB", "group": "fengyun-1c-debris", "lat": 15.020345019341363, "lon": -122.9379675204211, "alt_km": 822.3865423161033, "timestamp": "2025-12-05T14:45:15.588837+00:00", "meta": {"OBJECT_NAME": "FENGYUN 1C DEB", "OBJECT_ID": "1999-025ERW", "EPOCH": "2025-11-24T11:18:51.497568", "MEAN_MOTION": 14.37024249, "ECCENTRICITY": 0.01622994, "INCLINATION": 98.9991, "RA_OF_ASC_NODE": 227.8463, "ARG_OF_PERICENTER": 166.3393, "MEAN_ANOMALY": 194.2263, "EPHEMERIS_TYPE": 0, "CLASSIFICATION_TYPE": "U", "NORAD_CAT_ID": 38173, "ELEMENT_SET_NO": 999, "REV_AT_EPOCH": 60381, "BSTAR": 0.00095115, "MEAN_MOTION_DOT": 3.231e-05, "MEAN_MOTION_DDOT": 0}, "tle": {"line1": "1 38173U 99025ERW 25328.47142937  .00003231  00000+0  95115-3 0  9996", "line2": "2 38173  98.9991 227.8463 0162299 166.3393 194.2263 14.37024249603812"}}, "geometry": {"type": "Point", "coordinates": [-122.9379675204211, 15.020345019341363]}}, {"type": "Feature", "properties": {"norad_id": 38491, "name": "FENGYUN 1C DEB", "group": "fengyun-1c-debris", "lat": 2.27233825599305, "lon": 166.38751103042594, "alt_km": 1017.0259113272186, "timestamp": "2025-12-05T14:45:15.588847+00:00", "meta": {"OBJECT_NAME": "FENGYUN 1C DEB", "OBJECT_ID": "1999-025ESA", "EPOCH": "2025-11-07T18:37:17.530176", "MEAN_MOTION": 13.96213514, "ECCENTRICITY": 0.02268827, "INCLINATION": 98.9363, "RA_OF_ASC_NODE": 318.985, "ARG_OF_PERICENTER": 122.5823, "MEAN_ANOMALY": 239.7468, "EPHEMERIS_TYPE": 0, "CLASSIFICATION_TYPE": "U", "NORAD_CAT_ID": 38491, "ELEMENT_SET_NO": 999, "REV_AT_EPOCH": 65972, "BSTAR": 0.00032180703, "MEAN_MOTION_DOT": 5.09e-06, "MEAN_MOTION_DDOT": 0}, "tle": {"line1": "1 38491U 99025ESA 25311.77589734  .00000509  00000+0  32181-3 0  9993", "line2": "2 38491  98.9363 318.9850 0226882 122.5823 239.7468 13.96213514659723"}}, "geometry": {"type": "Point", "coordinates": [166.38751103042594, 2.27233825599305]}}, {"type": "Feature", "properties": {"norad_id": 38492, "name": "FENGYUN 1C DEB", "group": "fengyun-1c-debris", "lat": 12.90911887625426, "lon": -126.13454682720699, "alt_km": 747.6777284384189, "timestamp": "2025-12-05T14:45:15.588858+00:00", "meta": {"OBJECT_NAME": "FENGYUN 1C DEB", "OBJECT_ID": "1999-025ESB", "EPOCH": "2025-11-07T22:24:32.618304", "MEAN_MOTION": 13.93045648, "ECCENTRICITY": 0.02334575, "INCLINATION": 98.6097, "RA_OF_ASC_NODE": 26.0841, "ARG_OF_PERICENTER": 245.4391, "MEAN_ANOMALY": 112.2279, "EPHEMERIS_TYPE": 0, "CLASSIFICATION_TYPE": "U", "NORAD_CAT_ID": 38492, "ELEMENT_SET_NO": 999, "REV_AT_EPOCH": 55519, "BSTAR": 0.0058484062, "MEAN_MOTION_DOT": 9.486e-05, "MEAN_MOTION_DDOT": 0}, "tle": {"line1": "1 38492U 99025ESB 25311.93371086  .00009486  00000+0  58484-2 0  9997", "line2": "2 38492  98.6097  26.0841 0233457 245.4391 112.2279 13.93045648555192"}}, "geometry": {"type": "Point", "coordinates": [-126.13454682720699, 12.90911887625426]}}, {"type": "Feature", "properties": {"norad_id": 38493, "name": "FENGYUN 1C DEB", "group": "fengyun-1c-debris", "lat": -18.180443487828484, "lon": -57.51050647659724, "alt_km": 953.3560063668237, "timestamp": "2025-12-05T14:45:15.588868+00:00", "meta": {"OBJECT_NAME": "FENGYUN 1C DEB", "OBJECT_ID": "1999-025ESC", "EPOCH": "2025-12-02T14:34:29.911296", "MEAN_MOTION": 13.62300089, "ECCENTRICITY": 0.04265045, "INCLINATION": 99.0775, "RA_OF_ASC_NODE": 296.6706, "ARG_OF_PERICENTER": 271.5685, "MEAN_ANOMALY": 83.6659, "EPHEMERIS_TYPE": 0, "CLASSIFICATION_TYPE": "U", "NORAD_CAT_ID": 38493, "ELEMENT_SET_NO": 999, "REV_AT_EPOCH": 56360, "BSTAR": 0.00057752132, "MEAN_MOTION_DOT": 7.81e-06, "MEAN_MOTION_DDOT": 0}, "tle": {"line1": "1 38493U 99025ESC 25336.60729064  .00000781  00000+0  57752-3 0  9999", "line2": "2 38493  99.0775 296.6706 0426504 271.5685  83.6659 13.62300089563606"}}, "geometry": {"type": "Point", "coordinates": [-57.51050647659724, -18.180443487828484]}}, {"type": "Feature", "properties": {"norad_id": 38494, "name": "FENGYUN 1C DEB", "group": "fengyun-1c-debris", "lat": 64.76634696179937, "lon": 128.7024735504407, "alt_km": 850.8240407825124, "timestamp": "2025-12-05T14:45:15.588878+00:00", "meta": {"OBJECT_NAME": "FENGYUN 1C DEB", "OBJECT_ID": "1999-025ESD", "EPOCH": "2025-12-04T02:13:11.134272", "MEAN_MOTION": 13.99763364, "ECCENTRICITY": 0.03867998, "INCLINATION": 98.4342, "RA_OF_ASC_NODE": 288.9449, "ARG_OF_PERICENTER": 33.497, "MEAN_ANOMALY": 329.0026, "EPHEMERIS_TYPE": 0, "CLASSIFICATION_TYPE": "U", "NORAD_CAT_ID": 38494, "ELEMENT_SET_NO": 999, "REV_AT_EPOCH": 7033, "BSTAR": 0.010812505, "MEAN_MOTION_DOT": 0.00030392, "MEAN_MOTION_DDOT": 0}, "tle": {"line1": "1 38494U 99025ESD 25338.09248998  .00030392  00000+0  10813-1 0  9993", "line2": "2 38494  98.4342 288.9449 0386799  33.4970 329.0026 13.99763364 70338"}}, "geometry": {"type": "Point", "coordinates": [128.7024735504407, 64.76634696179937]}}, {"type": "Feature", "properties": {"norad_id": 38495, "name": "FENGYUN 1C DEB", "group": "fengyun-1c-debris", "lat": -52.07935308015878, "lon": 8.262112714657015, "alt_km": 1169.6188475205008, "timestamp": "2025-12-05T14:45:15.588889+00:00", "meta": {"OBJECT_NAME": "FENGYUN 1C DEB", "OBJECT_ID": "1999-025ESE", "EPOCH": "2025-12-02T06:20:41.771904", "MEAN_MOTION": 13.69106573, "ECCENTRICITY": 0.0252581, "INCLINATION": 99.1709, "RA_OF_ASC_NODE": 353.1036, "ARG_OF_PERICENTER": 165.9119, "MEAN_ANOMALY": 194.9245, "EPHEMERIS_TYPE": 0, "CLASSIFICATION_TYPE": "U", "NORAD_CAT_ID": 38495, "ELEMENT_SET_NO": 999, "REV_AT_EPOCH": 60969, "BSTAR": 0.0025866, "MEAN_MOTION_DOT": 2.759e-05, "MEAN_MOTION_DDOT": 0}, "tle": {"line1": "1 38495U 99025ESE 25336.26437236  .00002759  00000+0  25866-2 0  9997", "line2": "2 38495  99.1709 353.1036 0252581 165.9119 194.9245 13.69106573609697"}}, "geometry": {"type": "Point", "coordinates": [8.262112714657015, -52.07935308015878]}}, {"type": "Feature", "properties": {"norad_id": 38496, "name": "FENGYUN 1C DEB", "group": "fengyun-1c-debris", "lat": 73.67431234351649, "lon": -158.69959232249184, "alt_km": 838.8804929417229, "timestamp": "2025-12-05T14:45:15.588899+00:00", "meta": {"OBJECT_NAME": "FENGYUN 1C DEB", "OBJECT_ID": "1999-025ESF", "EPOCH": "2025-12-02T19:50:53.821248", "MEAN_MOTION": 14.09951283, "ECCENTRICITY": 0.00773026, "INCLINATION": 98.7623, "RA_OF_ASC_NODE": 346.8127, "ARG_OF_PERICENTER": 35.254, "MEAN_ANOMALY": 325.371, "EPHEMERIS_TYPE": 0, "CLASSIFICATION_TYPE": "U", "NORAD_CAT_ID": 38496, "ELEMENT_SET_NO": 999, "REV_AT_EPOCH": 80881, "BSTAR": 0.0012363442, "MEAN_MOTION_DOT": 2.198e-05, "MEAN_MOTION_DDOT": 0}, "tle": {"line1": "1 38496U 99025ESF 25336.82701182  .00002198  00000+0  12363-2 0  9999", "line2": "2 38496  98.7623 346.8127 0077302  35.2540 325.3710 14.09951283808814"}}, "geometry": {"type": "Point", "coordinates": [-158.69959232249184, 73.67431234351649]}}]}